CCSDS_OMM_VERS = 2.0
CREATION_DATE  = 
ORIGINATOR     = 

OBJECT_NAME    = STARLINK-36659
OBJECT_ID      = 2026-033N
CENTER_NAME    = EARTH
REF_FRAME      = TEME
TIME_SYSTEM    = UTC
MEAN_ELEMENT_THEORY = SGP/SGP4

EPOCH          = 2026-03-18T06:00:02.000160
MEAN_MOTION    = 15.58169659
ECCENTRICITY   = .0001864
INCLINATION    = 42.9995
RA_OF_ASC_NODE = 219.5524
ARG_OF_PERICENTER = 264.8124
MEAN_ANOMALY   = 84.6144

EPHEMERIS_TYPE = 0
CLASSIFICATION_TYPE = U
NORAD_CAT_ID   = 67833
ELEMENT_SET_NO = 999
REV_AT_EPOCH   = 604
BSTAR          = -.2725956E-1
MEAN_MOTION_DOT = -.1870038E-1
MEAN_MOTION_DDOT = 0

CCSDS_OMM_VERS = 2.0
CREATION_DATE  = 
ORIGINATOR     = 

OBJECT_NAME    = STARLINK-36655
OBJECT_ID      = 2026-033P
CENTER_NAME    = EARTH
REF_FRAME      = TEME
TIME_SYSTEM    = UTC
MEAN_ELEMENT_THEORY = SGP/SGP4

EPOCH          = 2026-03-18T06:00:02.000160
MEAN_MOTION    = 15.52931173
ECCENTRICITY   = .00016274
INCLINATION    = 42.9997
RA_OF_ASC_NODE = 219.8509
ARG_OF_PERICENTER = 262.8915
MEAN_ANOMALY   = 326.2394

EPHEMERIS_TYPE = 0
CLASSIFICATION_TYPE = U
NORAD_CAT_ID   = 67834
ELEMENT_SET_NO = 999
REV_AT_EPOCH   = 604
BSTAR          = -.38330022E-1
MEAN_MOTION_DOT = -.2166235E-1
MEAN_MOTION_DDOT = 0

CCSDS_OMM_VERS = 2.0
CREATION_DATE  = 
ORIGINATOR     = 

OBJECT_NAME    = STARLINK-36657
OBJECT_ID      = 2026-033Q
CENTER_NAME    = EARTH
REF_FRAME      = TEME
TIME_SYSTEM    = UTC
MEAN_ELEMENT_THEORY = SGP/SGP4

EPOCH          = 2026-03-18T06:00:02.000160
MEAN_MOTION    = 15.56825974
ECCENTRICITY   = .00018015
INCLINATION    = 42.9999
RA_OF_ASC_NODE = 219.6011
ARG_OF_PERICENTER = 264.6140
MEAN_ANOMALY   = 64.9997

EPHEMERIS_TYPE = 0
CLASSIFICATION_TYPE = U
NORAD_CAT_ID   = 67835
ELEMENT_SET_NO = 999
REV_AT_EPOCH   = 604
BSTAR          = -.28678332E-1
MEAN_MOTION_DOT = -.1869608E-1
MEAN_MOTION_DDOT = 0

CCSDS_OMM_VERS = 2.0
CREATION_DATE  = 
ORIGINATOR     = 

OBJECT_NAME    = STARLINK-36650
OBJECT_ID      = 2026-033R
CENTER_NAME    = EARTH
REF_FRAME      = TEME
TIME_SYSTEM    = UTC
MEAN_ELEMENT_THEORY = SGP/SGP4

EPOCH          = 2026-03-18T06:00:02.000160
MEAN_MOTION    = 15.50534649
ECCENTRICITY   = .00011406
INCLINATION    = 43.0001
RA_OF_ASC_NODE = 220.1129
ARG_OF_PERICENTER = 271.7780
MEAN_ANOMALY   = 210.4716

EPHEMERIS_TYPE = 0
CLASSIFICATION_TYPE = U
NORAD_CAT_ID   = 67836
ELEMENT_SET_NO = 999
REV_AT_EPOCH   = 604
BSTAR          = .11424225E-2
MEAN_MOTION_DOT = .67149E-3
MEAN_MOTION_DDOT = 0

CCSDS_OMM_VERS = 2.0
CREATION_DATE  = 
ORIGINATOR     = 

OBJECT_NAME    = STARLINK-36649
OBJECT_ID      = 2026-033S
CENTER_NAME    = EARTH
REF_FRAME      = TEME
TIME_SYSTEM    = UTC
MEAN_ELEMENT_THEORY = SGP/SGP4

EPOCH          = 2026-03-18T06:00:02.000160
MEAN_MOTION    = 15.52680338
ECCENTRICITY   = .00008868
INCLINATION    = 43.0003
RA_OF_ASC_NODE = 219.8446
ARG_OF_PERICENTER = 250.4075
MEAN_ANOMALY   = 340.7249

EPHEMERIS_TYPE = 0
CLASSIFICATION_TYPE = U
NORAD_CAT_ID   = 67837
ELEMENT_SET_NO = 999
REV_AT_EPOCH   = 604
BSTAR          = -.46010138E-1
MEAN_MOTION_DOT = -.2572663E-1
MEAN_MOTION_DDOT = 0

CCSDS_OMM_VERS = 2.0
CREATION_DATE  = 
ORIGINATOR     = 

OBJECT_NAME    = STARLINK-36654
OBJECT_ID      = 2026-033T
CENTER_NAME    = EARTH
REF_FRAME      = TEME
TIME_SYSTEM    = UTC
MEAN_ELEMENT_THEORY = SGP/SGP4

EPOCH          = 2026-03-18T06:00:02.000160
MEAN_MOTION    = 15.50473570
ECCENTRICITY   = .00016273
INCLINATION    = 43.0001
RA_OF_ASC_NODE = 219.9639
ARG_OF_PERICENTER = 251.3742
MEAN_ANOMALY   = 290.9331

EPHEMERIS_TYPE = 0
CLASSIFICATION_TYPE = U
NORAD_CAT_ID   = 67838
ELEMENT_SET_NO = 999
REV_AT_EPOCH   = 604
BSTAR          = .14369474E-2
MEAN_MOTION_DOT = .84555E-3
MEAN_MOTION_DDOT = 0

CCSDS_OMM_VERS = 2.0
CREATION_DATE  = 
ORIGINATOR     = 

OBJECT_NAME    = STARLINK-36652
OBJECT_ID      = 2026-033U
CENTER_NAME    = EARTH
REF_FRAME      = TEME
TIME_SYSTEM    = UTC
MEAN_ELEMENT_THEORY = SGP/SGP4

EPOCH          = 2026-03-18T06:00:02.000160
MEAN_MOTION    = 15.50528320
ECCENTRICITY   = .00017364
INCLINATION    = 43.0000
RA_OF_ASC_NODE = 220.0679
ARG_OF_PERICENTER = 273.4965
MEAN_ANOMALY   = 226.9254

EPHEMERIS_TYPE = 0
CLASSIFICATION_TYPE = U
NORAD_CAT_ID   = 67839
ELEMENT_SET_NO = 999
REV_AT_EPOCH   = 604
BSTAR          = .12013023E-2
MEAN_MOTION_DOT = .70644E-3
MEAN_MOTION_DDOT = 0

CCSDS_OMM_VERS = 2.0
CREATION_DATE  = 
ORIGINATOR     = 

OBJECT_NAME    = STARLINK-36651
OBJECT_ID      = 2026-033V
CENTER_NAME    = EARTH
REF_FRAME      = TEME
TIME_SYSTEM    = UTC
MEAN_ELEMENT_THEORY = SGP/SGP4

EPOCH          = 2026-03-18T06:00:02.000160
MEAN_MOTION    = 15.50479837
ECCENTRICITY   = .00024701
INCLINATION    = 43.0002
RA_OF_ASC_NODE = 219.9539
ARG_OF_PERICENTER = 280.8493
MEAN_ANOMALY   = 265.1636

EPHEMERIS_TYPE = 0
CLASSIFICATION_TYPE = U
NORAD_CAT_ID   = 67840
ELEMENT_SET_NO = 999
REV_AT_EPOCH   = 604
BSTAR          = .13887161E-2
MEAN_MOTION_DOT = .81697E-3
MEAN_MOTION_DDOT = 0

CCSDS_OMM_VERS = 2.0
CREATION_DATE  = 
ORIGINATOR     = 

OBJECT_NAME    = STARLINK-36656
OBJECT_ID      = 2026-033W
CENTER_NAME    = EARTH
REF_FRAME      = TEME
TIME_SYSTEM    = UTC
MEAN_ELEMENT_THEORY = SGP/SGP4

EPOCH          = 2026-03-18T06:00:02.000160
MEAN_MOTION    = 15.50792525
ECCENTRICITY   = .00018783
INCLINATION    = 42.9999
RA_OF_ASC_NODE = 219.8702
ARG_OF_PERICENTER = 293.8669
MEAN_ANOMALY   = 286.1184

EPHEMERIS_TYPE = 0
CLASSIFICATION_TYPE = U
NORAD_CAT_ID   = 67841
ELEMENT_SET_NO = 999
REV_AT_EPOCH   = 604
BSTAR          = -.78433461E-2
MEAN_MOTION_DOT = -.438971E-2
MEAN_MOTION_DDOT = 0

CCSDS_OMM_VERS = 2.0
CREATION_DATE  = 
ORIGINATOR     = 

OBJECT_NAME    = STARLINK-36653
OBJECT_ID      = 2026-033X
CENTER_NAME    = EARTH
REF_FRAME      = TEME
TIME_SYSTEM    = UTC
MEAN_ELEMENT_THEORY = SGP/SGP4

EPOCH          = 2026-03-18T06:00:02.000160
MEAN_MOTION    = 15.50514655
ECCENTRICITY   = .00017307
INCLINATION    = 43.0001
RA_OF_ASC_NODE = 219.9264
ARG_OF_PERICENTER = 263.4677
MEAN_ANOMALY   = 293.6396

EPHEMERIS_TYPE = 0
CLASSIFICATION_TYPE = U
NORAD_CAT_ID   = 67842
ELEMENT_SET_NO = 999
REV_AT_EPOCH   = 604
BSTAR          = .13779904E-2
MEAN_MOTION_DOT = .81155E-3
MEAN_MOTION_DDOT = 0

CCSDS_OMM_VERS = 2.0
CREATION_DATE  = 
ORIGINATOR     = 

OBJECT_NAME    = STARLINK-36589
OBJECT_ID      = 2026-033Y
CENTER_NAME    = EARTH
REF_FRAME      = TEME
TIME_SYSTEM    = UTC
MEAN_ELEMENT_THEORY = SGP/SGP4

EPOCH          = 2026-03-18T06:00:02.000160
MEAN_MOTION    = 15.50848333
ECCENTRICITY   = .00019199
INCLINATION    = 43.0000
RA_OF_ASC_NODE = 219.8470
ARG_OF_PERICENTER = 275.9464
MEAN_ANOMALY   = 313.6325

EPHEMERIS_TYPE = 0
CLASSIFICATION_TYPE = U
NORAD_CAT_ID   = 67843
ELEMENT_SET_NO = 999
REV_AT_EPOCH   = 604
BSTAR          = -.80743806E-2
MEAN_MOTION_DOT = -.452055E-2
MEAN_MOTION_DDOT = 0

CCSDS_OMM_VERS = 2.0
CREATION_DATE  = 
ORIGINATOR     = 

OBJECT_NAME    = STARLINK-36598
OBJECT_ID      = 2026-033Z
CENTER_NAME    = EARTH
REF_FRAME      = TEME
TIME_SYSTEM    = UTC
MEAN_ELEMENT_THEORY = SGP/SGP4

EPOCH          = 2026-03-18T06:00:02.000160
MEAN_MOTION    = 15.50540013
ECCENTRICITY   = .00018919
INCLINATION    = 43.0001
RA_OF_ASC_NODE = 220.0506
ARG_OF_PERICENTER = 301.9025
MEAN_ANOMALY   = 204.8215

EPHEMERIS_TYPE = 0
CLASSIFICATION_TYPE = U
NORAD_CAT_ID   = 67844
ELEMENT_SET_NO = 999
REV_AT_EPOCH   = 604
BSTAR          = .11079112E-2
MEAN_MOTION_DOT = .65107E-3
MEAN_MOTION_DDOT = 0

