STARLINK-36659          
1 67833U 26033N   26077.25002315 -.01870038  00000+0 -27260-1 0  9997
2 67833  42.9995 219.5524 0001864 264.8124  84.6144 15.58169659  6043
STARLINK-36655          
1 67834U 26033P   26077.25002315 -.02166235  00000+0 -38330-1 0  9996
2 67834  42.9997 219.8509 0001627 262.8915 326.2394 15.52931173  6049
STARLINK-36657          
1 67835U 26033Q   26077.25002315 -.01869608  00000+0 -28678-1 0  9994
2 67835  42.9999 219.6011 0001801 264.6140  64.9997 15.56825974  6042
STARLINK-36650          
1 67836U 26033R   26077.25002315  .00067149  00000+0  11424-2 0  9994
2 67836  43.0001 220.1129 0001140 271.7780 210.4716 15.50534649  6048
STARLINK-36649          
1 67837U 26033S   26077.25002315 -.02572663  00000+0 -46010-1 0  9999
2 67837  43.0003 219.8446 0000886 250.4075 340.7249 15.52680338  6042
STARLINK-36654          
1 67838U 26033T   26077.25002315  .00084555  00000+0  14369-2 0  9997
2 67838  43.0001 219.9639 0001627 251.3742 290.9331 15.50473570  6045
STARLINK-36652          
1 67839U 26033U   26077.25002315  .00070644  00000+0  12013-2 0  9996
2 67839  43.0000 220.0679 0001736 273.4965 226.9254 15.50528320  6042
STARLINK-36651          
1 67840U 26033V   26077.25002315  .00081697  00000+0  13887-2 0  9998
2 67840  43.0002 219.9539 0002470 280.8493 265.1636 15.50479837  6049
STARLINK-36656          
1 67841U 26033W   26077.25002315 -.00438971  00000+0 -78433-2 0  9990
2 67841  42.9999 219.8702 0001878 293.8669 286.1184 15.50792525  6047
STARLINK-36653          
1 67842U 26033X   26077.25002315  .00081155  00000+0  13780-2 0  9991
2 67842  43.0001 219.9264 0001730 263.4677 293.6396 15.50514655  6041
STARLINK-36589          
1 67843U 26033Y   26077.25002315 -.00452055  00000+0 -80744-2 0  9999
2 67843  43.0000 219.8470 0001919 275.9464 313.6325 15.50848333  6048
STARLINK-36598          
1 67844U 26033Z   26077.25002315  .00065107  00000+0  11079-2 0  9991
2 67844  43.0001 220.0506 0001891 301.9025 204.8215 15.50540013  6049
